[{"OBJECT_NAME":"ASO-S","OBJECT_ID":"2022-129A","EPOCH":"2026-03-09T22:56:02.207040","MEAN_MOTION":14.52012554,"ECCENTRICITY":0.00151338,"INCLINATION":98.2779,"RA_OF_ASC_NODE":75.4501,"ARG_OF_PERICENTER":41.7143,"MEAN_ANOMALY":318.5203,"EPHEMERIS_TYPE":0,"CLASSIFICATION_TYPE":"U","NORAD_CAT_ID":54029,"ELEMENT_SET_NO":999,"REV_AT_EPOCH":18102,"BSTAR":8.1391382e-5,"MEAN_MOTION_DOT":2.85e-6,"MEAN_MOTION_DDOT":0},{"OBJECT_NAME":"GSLV R\/B","OBJECT_ID":"2025-163B","EPOCH":"2026-03-09T23:23:13.362144","MEAN_MOTION":14.47767443,"ECCENTRICITY":0.00118,"INCLINATION":98.4359,"RA_OF_ASC_NODE":260.2623,"ARG_OF_PERICENTER":356.9317,"MEAN_ANOMALY":3.1801,"EPHEMERIS_TYPE":0,"CLASSIFICATION_TYPE":"U","NORAD_CAT_ID":65054,"ELEMENT_SET_NO":999,"REV_AT_EPOCH":3218,"BSTAR":0.00013331313,"MEAN_MOTION_DOT":4.48e-6,"MEAN_MOTION_DDOT":0}]
